[{"OBJECT_NAME":"PUNCH-WFI 1 (SMEX 15B)","OBJECT_ID":"2025-047B","EPOCH":"2026-03-09T11:45:25.991424","MEAN_MOTION":14.74225366,"ECCENTRICITY":0.0009999,"INCLINATION":97.9576,"RA_OF_ASC_NODE":255.6057,"ARG_OF_PERICENTER":132.8335,"MEAN_ANOMALY":227.3715,"EPHEMERIS_TYPE":0,"CLASSIFICATION_TYPE":"U","NORAD_CAT_ID":63179,"ELEMENT_SET_NO":999,"REV_AT_EPOCH":5337,"BSTAR":0.00015602986,"MEAN_MOTION_DOT":9.82e-6,"MEAN_MOTION_DDOT":0},{"OBJECT_NAME":"FENGYUN 1C DEB","OBJECT_ID":"1999-025CDN","EPOCH":"2026-03-07T09:54:23.528448","MEAN_MOTION":14.52987821,"ECCENTRICITY":0.01830064,"INCLINATION":99.2941,"RA_OF_ASC_NODE":269.3396,"ARG_OF_PERICENTER":226.793,"MEAN_ANOMALY":131.7854,"EPHEMERIS_TYPE":0,"CLASSIFICATION_TYPE":"U","NORAD_CAT_ID":31715,"ELEMENT_SET_NO":999,"REV_AT_EPOCH":62946,"BSTAR":0.0014762147,"MEAN_MOTION_DOT":7.538e-5,"MEAN_MOTION_DDOT":0}]
